CREW DRAGON 4           
1 52318U 22042A   22143.57912155  .00010717  00000+0  19800-3 0  9992
2 52318  51.6434  98.4640 0005026 147.1299   4.6316 15.49630252341365
2022-043A               
1 52320U 22043A   22144.46234444  .00012400  00000+0  52592-3 0  9999
2 52320  97.4717 220.0164 0013190 166.8823 289.8729 15.23178692  3857
2022-043B               
1 52321U 22043B   22144.43243046  .00043184  00000+0  16944-2 0  9998
2 52321  97.4707 220.0411 0013558 195.4530 230.0278 15.25516294  3856
2022-043C               
1 52322U 22043C   22144.43580897  .00013196  00000+0  53365-3 0  9996
2 52322  97.4716 220.0390 0013766 196.3466 233.8584 15.24764143  3850
2022-043D               
1 52323U 22043D   22144.42512745  .00021335  00000+0  38803-3 0  9997
2 52323  97.5628 221.2409 0087091 293.2380 128.0078 15.45349134  3903
2022-043E               
1 52324U 22043E   22144.45043002  .00112528  00000+0  38395-2 0  9996
2 52324  97.4626 220.1434 0020598 217.5109 204.1660 15.29676209  3860
2022-043F               
1 52325U 22043F   22144.46696530  .00068228  00000+0  39050-2 0  9994
2 52325  97.2210 218.6065 0109908 129.0479 232.0589 15.07316062  3808
2022-043G               
1 52326U 22043G   22144.45852599  .00027133  00000+0  23884-2 0  9991
2 52326  97.2931 218.1157 0157778  80.1577 281.7373 14.87297927  3751
2022-043H               
1 52327U 22043H   22144.48042208  .00047537  00000+0  27559-2 0  9996
2 52327  97.7067 220.0678 0118980 131.7389 229.4045 15.06140468  3814
2022-043J               
1 52328U 22043J   22144.46870848  .00035028  00000+0  30985-2 0  9993
2 52328  97.7277 219.3802 0160004  81.9801 279.9538 14.86826650  3747
STARLINK-3889           
1 52331U 22045A   22144.58334491 -.00718001  00000+0 -94682-2 0  9996
2 52331  53.2177 314.4233 0001048  77.2851 303.1234 15.60151728  6439
STARLINK-3831           
1 52332U 22045B   22144.58334491 -.00718157  00000+0 -94753-2 0  9998
2 52332  53.2177 314.4023 0001129  63.1720 315.0341 15.60137849  6435
STARLINK-3847           
1 52333U 22045C   22144.58334491 -.00718138  00000+0 -94733-2 0  9996
2 52333  53.2177 314.4094 0001137  60.1250 318.8153 15.60142505  6424
STARLINK-3880           
1 52334U 22045D   22144.58334491 -.00718053  00000+0 -94672-2 0  9995
2 52334  53.2177 314.4295 0001070  72.8222 308.3203 15.60156377  6425
STARLINK-3814           
1 52335U 22045E   22144.51537264 -.00317122  00000+0 -38600-2 0  9993
2 52335  53.2127 314.7778 0000961 132.1762 227.9335 15.60927278  6425
STARLINK-3823           
1 52336U 22045F   22144.58334491 -.00718069  00000+0 -94640-2 0  9999
2 52336  53.2177 314.4493 0001070  72.6519 309.9584 15.60165789  6431
STARLINK-3797           
1 52337U 22045G   22144.51576160 -.00273332  00000+0 -33200-2 0  9998
2 52337  53.2125 314.7609 0001988  59.8715 300.2496 15.60831835  6427
STARLINK-3815           
1 52338U 22045H   22144.50001157 -.00714316  00000+0 -93590-2 0  9997
2 52338  53.2177 314.8733 0001248  68.9512 207.5232 15.60305679  6417
STARLINK-3792           
1 52339U 22045J   22144.51497217 -.00314123  00000+0 -38175-2 0  9995
2 52339  53.2134 314.7913 0001074 113.1449 246.9679 15.60957593  6420
STARLINK-3818           
1 52340U 22045K   22144.58334491 -.00045354  00000+0 -32039-3 0  9999
2 52340  53.2147 314.0478 0001113  84.7148 142.1372 15.73206833  6423
STARLINK-3843           
1 52341U 22045L   22144.51504983 -.00279245  00000+0 -33221-2 0  9999
2 52341  53.2130 314.7885 0001634 170.3422 189.7625 15.61390068  6429
STARLINK-3850           
1 52342U 22045M   22143.91668981  .00081706  00000+0  58304-3 0  9993
2 52342  53.2142 317.3456 0001092  70.7209 339.6744 15.73114994  1305
STARLINK-3849           
1 52343U 22045N   22144.51471197 -.00304005  00000+0 -36846-2 0  9990
2 52343  53.2137 314.8372 0000793  90.4194 269.6911 15.60994873  6422
STARLINK-3851           
1 52344U 22045P   22144.16667824  .00047217  00000+0  34091-3 0  9994
2 52344  53.2144 316.1042 0001064  78.5795 310.0174 15.73064833  6369
STARLINK-3852           
1 52345U 22045Q   22144.58334491 -.00075821  00000+0 -54022-3 0  9992
2 52345  53.2148 314.0490 0000985  70.6228 155.6722 15.73220955  6421
STARLINK-3812           
1 52346U 22045R   22144.58334491 -.00002227  00000+0 -11446-4 0  9997
2 52346  53.2177 314.0396 0001440  68.3909 161.2582 15.73205363  6430
STARLINK-3826           
1 52347U 22045S   22144.16667824  .00010421  00000+0  78741-4 0  9995
2 52347  53.2143 316.1092 0001107  75.9339 310.4170 15.73148602  6366
STARLINK-3829           
1 52348U 22045T   22144.16667824 -.00028543  00000+0 -19983-3 0  9994
2 52348  53.2141 316.1006 0000974  70.8852 319.1238 15.73179571  6365
STARLINK-3819           
1 52349U 22045U   22144.58334491 -.00002096  00000+0 -10519-4 0  9994
2 52349  53.2177 314.0424 0001177  84.6819 143.7750 15.73205299  6433
STARLINK-3754           
1 52350U 22045V   22144.58334491  .00252348  00000+0  17600-2 0  9997
2 52350  53.2171 314.0356 0001253  86.6420 144.8685 15.73052164  6438
STARLINK-3816           
1 52351U 22045W   22144.16667824 -.00029722  00000+0 -20768-3 0  9991
2 52351  53.2147 316.1033 0001033  51.9205 337.3317 15.73247882  6365
STARLINK-3838           
1 52352U 22045X   22144.16667824 -.00043682  00000+0 -30777-3 0  9994
2 52352  53.2140 316.0956 0001363  38.9664 353.3178 15.73249753  6364
STARLINK-3807           
1 52353U 22045Y   22144.16667824 -.00060335  00000+0 -42771-3 0  9996
2 52353  53.2141 316.0985 0001122  67.9669 323.1406 15.73246582  6364
STARLINK-3876           
1 52354U 22045Z   22144.58334491 -.00002235  00000+0 -11507-4 0  9993
2 52354  53.2178 314.0270 0001553  72.3175 163.2927 15.73205365  6433
STARLINK-3877           
1 52355U 22045AA  22144.16667824  .00046705  00000+0  33578-3 0  9996
2 52355  53.2141 316.0972 0001185  66.4948 325.1268 15.73169311  6367
STARLINK-3801           
1 52356U 22045AB  22144.16667824 -.00044671  00000+0 -31492-3 0  9992
2 52356  53.2143 316.0934 0001036  80.8269 312.6061 15.73247655  6369
STARLINK-3821           
1 52357U 22045AC  22144.58334491 -.00101688  00000+0 -72728-3 0  9999
2 52357  53.2145 314.0325 0001117  73.9534 160.0600 15.73252222  6430
STARLINK-3837           
1 52358U 22045AD  22144.16667824 -.00048618  00000+0 -34342-3 0  9996
2 52358  53.2141 316.0873 0001012  74.6644 321.7587 15.73239053  6360
STARLINK-3853           
1 52359U 22045AE  22144.16667824 -.00057481  00000+0 -40719-3 0  9990
2 52359  53.2141 316.0926 0001299  74.4647 319.5799 15.73242489  6365
STARLINK-3824           
1 52360U 22045AF  22144.16667824 -.00062309  00000+0 -44199-3 0  9993
2 52360  53.2143 316.0841 0001197  72.9685 324.6679 15.73244369  6359
STARLINK-3728           
1 52361U 22045AG  22144.58334491 -.00026158  00000+0 -18267-3 0  9990
2 52361  53.2142 314.0271 0001067  75.4339 161.0296 15.73183749  6435
STARLINK-3848           
1 52362U 22045AH  22143.91668981  .00017218  00000+0  12703-3 0  9995
2 52362  53.2137 317.3219 0001118  78.5730 342.9442 15.73164781  1303
STARLINK-3830           
1 52363U 22045AJ  22144.16667824 -.00065465  00000+0 -46484-3 0  9991
2 52363  53.2139 316.0881 0001225  76.6556 319.1988 15.73240873  6360
STARLINK-3820           
1 52364U 22045AK  22144.16667824 -.00067986  00000+0 -48324-3 0  9997
2 52364  53.2137 316.0804 0001207  75.5837 323.8615 15.73232196  6373
STARLINK-3874           
1 52365U 22045AL  22144.58334491 -.00068199  00000+0 -48503-3 0  9991
2 52365  53.2141 314.0235 0001113  79.5409 158.6295 15.73220430  6433
STARLINK-3808           
1 52366U 22045AM  22144.58334491 -.00002379  00000+0 -12535-4 0  9997
2 52366  53.2178 314.0156 0001406  81.1458 160.4254 15.73205455  6430
STARLINK-3817           
1 52367U 22045AN  22144.58334491  .00092179  00000+0  65543-3 0  9999
2 52367  53.2171 314.0195 0001234  81.4624 158.3455 15.73149479  6436
STARLINK-3834           
1 52368U 22045AP  22144.16667824 -.00051773  00000+0 -36584-3 0  9993
2 52368  53.2136 316.0745 0001031  81.7274 320.6354 15.73257829  6363
STARLINK-3841           
1 52369U 22045AQ  22144.16667824  .00043644  00000+0  31454-3 0  9991
2 52369  53.2136 316.0796 0000880  79.5238 320.4348 15.73142287  6379
STARLINK-3827           
1 52370U 22045AR  22144.58334491  .00184316  00000+0  12950-2 0  9991
2 52370  53.2170 314.0139 0001430  81.8724 160.3487 15.73092536  6439
STARLINK-3798           
1 52371U 22045AS  22144.58334491 -.00032616  00000+0 -22906-3 0  9992
2 52371  53.2138 314.0132 0001150  76.2156 166.7900 15.73181502  6424
STARLINK-3796           
1 52372U 22045AT  22144.16667824 -.00068611  00000+0 -48740-3 0  9994
2 52372  53.2132 316.0709 0000929  67.9186 335.7041 15.73250224  6369
STARLINK-3550           
1 52373U 22045AU  22144.58334491 -.00002505  00000+0 -13426-4 0  9996
2 52373  53.2178 314.0060 0001611  73.5835 172.1604 15.73205503  6437
STARLINK-3762           
1 52374U 22045AV  22144.58334491 -.00113205  00000+0 -81347-3 0  9993
2 52374  53.2139 314.0067 0001042  69.9299 175.7230 15.73189141  6436
STARLINK-3785           
1 52375U 22045AW  22143.91668981 -.00005357  00000+0 -33855-4 0  9994
2 52375  53.2134 317.3115 0001032  64.9853   1.3512 15.73152473  6336
STARLINK-3767           
1 52376U 22045AX  22144.16667824 -.00062657  00000+0 -44432-3 0  9996
2 52376  53.2132 316.0661 0000979  76.5651 329.3600 15.73254420  6371
STARLINK-3805           
1 52377U 22045AY  22144.16667824 -.00023229  00000+0 -16136-3 0  9999
2 52377  53.2134 316.0682 0001197  68.4114 336.9648 15.73227001  6364
STARLINK-3806           
1 52378U 22045AZ  22144.58334491  .00008152  00000+0  62472-4 0  9998
2 52378  53.2137 314.0017 0001052  71.6954 176.6246 15.73188959  6435
STARLINK-3800           
1 52379U 22045BA  22144.16667824  .00044615  00000+0  32248-3 0  9993
2 52379  53.2132 316.0658 0000903  90.2498 316.1154 15.73063543  6371
